OBJECT_NAME,OBJECT_ID,EPOCH,MEAN_MOTION,ECCENTRICITY,INCLINATION,RA_OF_ASC_NODE,ARG_OF_PERICENTER,MEAN_ANOMALY,EPHEMERIS_TYPE,CLASSIFICATION_TYPE,NORAD_CAT_ID,ELEMENT_SET_NO,REV_AT_EPOCH,BSTAR,MEAN_MOTION_DOT,MEAN_MOTION_DDOT
STARLINK-37835,2026-131Y,2026-07-11T20:00:03.000384,15.51396799,.0002155,97.2850,214.4566,95.1775,174.0791,0,U,69500,999,493,-.5735E-1,-.292877E-1,0
STARLINK-37843,2026-131Z,2026-07-11T20:00:03.000384,15.49143655,.0001516,97.2847,214.4452,74.2971,173.8462,0,U,69501,999,602,.64014E-3,.34824E-3,0
STARLINK-37536,2026-133A,2026-07-11T10:47:49.321824,15.49325262,.00008629,53.1576,202.7623,72.4560,287.6543,0,U,69508,999,457,.55766626E-3,.30706E-3,0
STARLINK-37341,2026-133B,2026-07-11T10:50:29.190336,15.49336557,.00009937,53.1590,202.7751,56.6800,303.4304,0,U,69509,999,458,.81801304E-3,.45355E-3,0
STARLINK-36536,2026-133C,2026-07-11T20:00:03.000384,15.35379483,.0001257,53.1585,200.3319,93.2648,179.7527,0,U,69510,999,588,.11472E-2,.3982E-3,0
STARLINK-37420,2026-133D,2026-07-11T20:00:03.000384,15.37290956,.0000538,53.1593,200.0724,266.0850,134.5125,0,U,69511,999,583,-.12278E+0,-.3941858E-1,0
STARLINK-37511,2026-133E,2026-07-11T20:00:03.000384,15.33529670,.0001127,53.1598,200.1284,93.6480,279.2296,0,U,69512,999,583,.12641E-2,.41405E-3,0
STARLINK-37552,2026-133F,2026-07-11T01:32:18.909600,15.49325269,.00018574,53.1587,204.6185,69.2199,290.9009,0,U,69513,999,578,.53501071E-3,.29436E-3,0
STARLINK-37607,2026-133G,2026-07-11T20:00:03.000384,15.35356396,.0001534,53.1593,200.2240,116.1665,208.0678,0,U,69514,999,583,.12055E-2,.41846E-3,0
STARLINK-37232,2026-133H,2026-07-11T08:41:05.685504,15.49340823,.00006755,53.1599,202.9120,15.5329,344.5701,0,U,69515,999,456,.85187072E-3,.47269E-3,0
STARLINK-37323,2026-133J,2026-07-11T20:00:03.000384,15.36022686,.0000557,53.1597,199.9485,42.0817,57.5142,0,U,69516,999,583,-.99598E-1,-.3104192E-1,0
STARLINK-37357,2026-133K,2026-07-11T10:48:37.431072,15.49348618,.00010431,53.1648,202.7655,345.0957,15.0022,0,U,69517,999,583,.65181996E-3,.36021E-3,0
STARLINK-37408,2026-133L,2026-07-11T12:20:23.673696,15.48863350,.00009033,53.1597,201.7144,166.7623,193.3410,0,U,69518,999,586,-.67415928E-2,-.353335E-2,0
STARLINK-37570,2026-133M,2026-07-11T08:44:55.703040,15.49338344,.0000754,53.1605,202.9265,48.0204,312.0869,0,U,69519,999,583,.81938712E-3,.45435E-3,0
STARLINK-37510,2026-133N,2026-07-11T10:11:07.482624,15.49313018,.0001722,53.1551,202.5861,94.9924,265.1281,0,U,69520,999,584,.31945733E-3,.17361E-3,0
STARLINK-37586,2026-133P,2026-07-11T20:00:03.000384,15.33500873,.0001385,53.1598,199.8919,112.7189,12.3572,0,U,69521,999,583,.12464E-2,.40778E-3,0
STARLINK-37379,2026-133Q,2026-07-11T11:04:46.717248,15.49341064,.00005482,53.1606,202.0992,221.7908,138.3059,0,U,69522,999,585,.56143105E-3,.30935E-3,0
STARLINK-37429,2026-133R,2026-07-10T12:45:17.599680,15.49342375,.0001182,53.1595,206.9677,74.4967,285.6173,0,U,69523,999,570,.10132E-2,.56376E-3,0
STARLINK-37352,2026-133S,2026-07-11T09:29:53.485152,15.49349205,.00007042,53.1619,202.3954,150.9895,209.1154,0,U,69524,999,584,.80941203E-3,.44891E-3,0
STARLINK-37490,2026-133T,2026-07-11T20:00:03.000384,15.39580550,.000157,53.1592,199.9024,126.0456,353.0171,0,U,69525,999,588,-.83836E-1,-.2957597E-1,0
STARLINK-37438,2026-133U,2026-07-11T09:50:06.557568,15.49333091,.00010312,53.1593,202.4873,81.2697,278.8429,0,U,69526,999,584,.58644076E-3,.3233E-3,0
STARLINK-37484,2026-133V,2026-07-11T20:00:03.000384,15.35370057,.0001012,53.1590,199.8834,66.8691,61.2590,0,U,69527,999,588,.12186E-2,.42325E-3,0
STARLINK-37523,2026-133W,2026-07-11T00:08:34.399680,15.49341122,.00025678,53.1554,204.2292,79.6135,280.5163,0,U,69528,999,578,.57286116E-3,.31578E-3,0
STARLINK-37369,2026-133X,2026-07-11T00:03:29.812032,15.49328692,.00010774,53.1589,204.2045,86.3007,273.8125,0,U,69529,999,578,.83235371E-3,.4615E-3,0
STARLINK-37670,2026-133Y,2026-07-11T09:42:24.868800,15.49346785,.00010669,53.1606,202.4495,90.6092,269.5039,0,U,69530,999,584,.74985556E-3,.41533E-3,0
STARLINK-37897,2026-133Z,2026-07-11T20:00:03.000384,15.41662452,.000108,53.1592,199.7821,140.4139,36.2794,0,U,69531,999,583,-.74705E-1,-.2840011E-1,0
STARLINK-37933,2026-133AA,2026-07-11T20:00:03.000384,15.35386891,.0001319,53.1588,200.4509,106.3329,96.3703,0,U,69532,999,583,.99055E-3,.34315E-3,0
STARLINK-37890,2026-133AB,2026-07-11T20:00:03.000384,15.34371635,.0001341,53.1582,200.3737,94.2134,144.9468,0,U,69533,999,583,.97768E-3,.32771E-3,0
STARLINK-37407,2026-133AC,2026-07-11T20:00:03.000384,15.33533345,.0001264,53.1585,200.2234,94.7866,217.7415,0,U,69534,999,588,.10537E-2,.34422E-3,0
STARLINK-37888,2026-133AD,2026-07-11T20:00:03.000384,15.34372356,.0001447,53.1582,200.2754,69.2243,216.4656,0,U,69535,999,583,.99523E-3,.3337E-3,0
STARLINK-37889,2026-133AE,2026-07-11T10:20:18.484800,15.49343632,.0001859,53.1560,202.6291,94.3949,265.7273,0,U,69536,999,584,.54605988E-3,.30076E-3,0
STARLINK-37880,2026-135A,2026-07-11T20:00:03.000384,15.49191202,.0000866,97.2845,221.0972,93.6180,213.0017,0,U,69546,999,526,.31276E-3,.16957E-3,0
STARLINK-37881,2026-135B,2026-07-11T20:00:03.000384,15.57739313,.0002144,97.2848,221.1777,72.4291,68.5477,0,U,69547,999,526,-.4132E-1,-.2697362E-1,0
STARLINK-37265,2026-135C,2026-07-11T20:00:03.000384,15.66350006,.0001844,97.2845,221.2338,92.3887,168.5280,0,U,69548,999,526,-.27921E-1,-.2517361E-1,0
STARLINK-37871,2026-135D,2026-07-11T20:00:03.000384,15.55427566,.0002122,97.2851,221.1757,84.5265,37.5548,0,U,69549,999,526,-.44478E-1,-.2667313E-1,0
STARLINK-37865,2026-135E,2026-07-11T20:00:03.000384,15.56619006,.0002018,97.2843,221.1840,69.6169,77.3706,0,U,69550,999,526,-.40213E-1,-.2487436E-1,0
STARLINK-37862,2026-135F,2026-07-11T20:00:03.000384,15.63097695,.0001688,97.2841,221.2199,87.7491,141.6335,0,U,69551,999,526,-.85768E-2,-.714734E-2,0
STARLINK-37861,2026-135G,2026-07-11T20:00:03.000384,15.58682102,.0002095,97.2845,221.2070,73.2580,123.5313,0,U,69552,999,526,-.34874E-1,-.2351076E-1,0
STARLINK-37859,2026-135H,2026-07-11T20:00:03.000384,15.60618986,.000206,97.2844,221.2158,89.5938,127.9334,0,U,69553,999,526,-.2644E-1,-.1928902E-1,0
STARLINK-37860,2026-135J,2026-07-11T20:00:03.000384,15.64244944,.0001766,97.2839,221.2420,105.6956,175.7016,0,U,69554,999,527,-.30216E-1,-.2505239E-1,0
STARLINK-37858,2026-135K,2026-07-11T20:00:03.000384,15.63166371,.000201,97.2840,221.2338,101.7430,158.0240,0,U,69555,999,527,-.31279E-1,-.2487805E-1,0
STARLINK-37927,2026-135L,2026-07-11T20:00:03.000384,15.56752240,.0001658,97.2843,221.2016,82.9111,110.3862,0,U,69556,999,527,-.42728E-1,-.268847E-1,0
STARLINK-37929,2026-135M,2026-07-11T20:00:03.000384,15.52107859,.0002215,97.2847,221.1716,62.3864,50.8388,0,U,69557,999,527,-.66536E-1,-.3480711E-1,0
STARLINK-37954,2026-135N,2026-07-11T20:00:03.000384,15.52577193,.0001958,97.2849,221.1757,51.9684,67.7335,0,U,69558,999,527,-.75536E-1,-.4029085E-1,0
STARLINK-37958,2026-135P,2026-07-09T08:31:58.095264,15.80710505,.00014208,97.2842,218.6737,185.9739,174.1513,0,U,69559,999,376,.27486559E-3,.52572E-3,0
STARLINK-37950,2026-135Q,2026-07-11T20:00:03.000384,15.62103099,.0001313,97.2840,221.2447,103.0379,184.4751,0,U,69560,999,527,-.17881E-1,-.140684E-1,0
STARLINK-37952,2026-135R,2026-07-11T20:00:03.000384,15.56368717,.0002469,97.2842,221.2159,102.2791,119.8182,0,U,69561,999,527,-.40219E-1,-.246812E-1,0
STARLINK-37935,2026-135S,2026-07-11T20:00:03.000384,15.50726330,.0001796,97.2850,221.1768,68.5034,62.2452,0,U,69562,999,527,-.41061E-1,-.2096386E-1,0
STARLINK-37936,2026-135T,2026-07-11T20:00:03.000384,15.52736381,.0001669,97.2841,221.2127,66.7963,138.2993,0,U,69563,999,527,-.37031E-1,-.2039108E-1,0
STARLINK-37932,2026-135U,2026-07-11T20:00:03.000384,15.64178831,.0001248,97.2846,221.2807,94.6881,273.6216,0,U,69564,999,527,-.30394E-1,-.2511819E-1,0
STARLINK-37916,2026-135V,2026-07-11T20:00:03.000384,15.59527436,.0001739,97.2842,221.2523,107.2352,198.0797,0,U,69565,999,527,-.35732E-1,-.2469755E-1,0
STARLINK-37909,2026-135W,2026-07-11T20:00:03.000384,15.69472460,.0001758,97.2846,221.3162,69.5571,29.8413,0,U,69566,999,527,-.25648E-1,-.2613656E-1,0
STARLINK-37934,2026-135X,2026-07-07T10:38:05.764992,15.81011723,.00032614,97.2845,216.6838,125.2579,234.8995,0,U,69567,999,346,.14681327E-2,.293381E-2,0
STARLINK-37938,2026-135Y,2026-07-11T20:00:03.000384,15.51297670,.0002066,97.2845,221.2160,73.2138,142.5442,0,U,69568,999,527,-.55406E-1,-.2833617E-1,0
STARLINK-37924,2026-135Z,2026-07-11T20:00:03.000384,15.61094239,.00015,97.2843,221.2842,55.3335,334.7539,0,U,69569,999,527,-.38654E-1,-.2846207E-1,0
STARLINK-37656,2026-143A,2026-07-11T20:00:03.000384,15.49198744,.0000984,97.2862,236.6845,87.6681,137.0526,0,U,69649,999,442,-.18464E-3,-.10123E-3,0
STARLINK-37646,2026-143B,2026-07-11T20:00:03.000384,15.49133475,.0002048,97.2855,236.8617,78.5547,197.0959,0,U,69650,999,442,-.38966E-4,-.2205E-4,0
STARLINK-37749,2026-143C,2026-07-11T20:00:03.000384,15.49172466,.000081,97.2854,236.8439,121.4784,115.7044,0,U,69651,999,442,.1358E-4,.648E-5,0
STARLINK-37819,2026-143D,2026-07-11T20:00:03.000384,15.49206937,.0001563,97.2855,236.8187,63.4906,109.2745,0,U,69652,999,442,-.12668E-3,-.6979E-4,0
STARLINK-37729,2026-143E,2026-07-11T15:37:30.936864,15.82890745,.0001006,97.2833,236.8383,185.0087,175.1173,0,U,69653,999,435,.95087E-3,.205038E-2,0
STARLINK-37838,2026-143F,2026-07-11T20:00:03.000384,15.51121252,.0001867,97.2841,236.8900,85.6809,251.0321,0,U,69654,999,442,-.50439E-1,-.259495E-1,0
STARLINK-37884,2026-143G,2026-07-11T20:00:03.000384,15.49201003,.0001133,97.2854,236.7969,88.0835,38.1057,0,U,69655,999,442,-.39138E-3,-.21328E-3,0
STARLINK-37876,2026-143H,2026-07-11T20:00:03.000384,15.49167450,.0001638,97.2850,236.8853,91.1662,244.2600,0,U,69656,999,432,-.15558E-3,-.8537E-4,0
STARLINK-37784,2026-143J,2026-07-11T20:00:03.000384,15.49217462,.0001535,97.2857,236.8161,68.9647,98.8408,0,U,69657,999,432,-.99192E-5,-.631E-5,0
